ELYSIUM STAR 2 & LFF    
1 43760U 18099C   24169.81121117  .00034159  00000+0  13206-2 0  9996
2 43760  97.5172 237.4141 0005641 252.7521 107.3100 15.26136593303330
